{"type": "FeatureCollection", "features": [ {"type": "Feature", "properties": {"norad_id": 66876, "name": "STARLINK-35702", "group": "last-30-days", "lat": 7.0921396646095936, "lon": -97.16880814339282, "alt_km": 343.9529142347337, "timestamp": "2025-12-17T21:39:44.492587+00:00", "meta": {"OBJECT_NAME": "STARLINK-35702", "OBJECT_ID": "2025-281AE", "EPOCH": "2025-12-17T14:00:03.000384", "MEAN_MOTION": 15.75187868, "ECCENTRICITY": 0.00020935, "INCLINATION": 43.0008, "RA_OF_ASC_NODE": 92.4412, "ARG_OF_PERICENTER": 271.067, "MEAN_ANOMALY": 246.1167, "EPHEMERIS_TYPE": 0, "CLASSIFICATION_TYPE": "U", "NORAD_CAT_ID": 66876, "ELEMENT_SET_NO": 999, "REV_AT_EPOCH": 220, "BSTAR": -0.0025590983, "MEAN_MOTION_DOT": -0.00378968, "MEAN_MOTION_DDOT": 0}, "tle": {"line1": "1 66876U 25281AE  25351.58336806 -.00378968  00000+0 -25591-2 0  9992", "line2": "2 66876  43.0008  92.4412 0002093 271.0670 246.1167 15.75187868  2206"}}, "geometry": {"type": "Point", "coordinates": [-97.16880814339282, 7.0921396646095936]}}, {"type": "Feature", "properties": {"norad_id": 66877, "name": "ZQ-3 R/B", "group": "last-30-days", "lat": -5.4392618593086315, "lon": -138.69516783309584, "alt_km": 265.1274917313913, "timestamp": "2025-12-17T21:39:44.492598+00:00", "meta": {"OBJECT_NAME": "ZQ-3 R/B", "OBJECT_ID": "2025-282A", "EPOCH": "2025-12-17T12:36:04.302720", "MEAN_MOTION": 14.69362325, "ECCENTRICITY": 0.07381359, "INCLINATION": 56.9501, "RA_OF_ASC_NODE": 39.2183, "ARG_OF_PERICENTER": 228.3086, "MEAN_ANOMALY": 125.249, "EPHEMERIS_TYPE": 0, "CLASSIFICATION_TYPE": "U", "NORAD_CAT_ID": 66877, "ELEMENT_SET_NO": 999, "REV_AT_EPOCH": 209, "BSTAR": 0.00019357394, "MEAN_MOTION_DOT": 0.01031108, "MEAN_MOTION_DDOT": 7.653122e-06}, "tle": {"line1": "1 66877U 25282A   25351.52504980  .01031108  76531-5  19357-3 0  9991", "line2": "2 66877  56.9501  39.2183 0738135 228.3086 125.2490 14.69362325  2099"}}, "geometry": {"type": "Point", "coordinates": [-138.69516783309584, -5.4392618593086315]}}, {"type": "Feature", "properties": {"norad_id": 66878, "name": "STARLINK-35866", "group": "last-30-days", "lat": -17.836130594434444, "lon": -118.17886825718062, "alt_km": 330.48599963618835, "timestamp": "2025-12-17T21:39:44.492608+00:00", "meta": {"OBJECT_NAME": "STARLINK-35866", "OBJECT_ID": "2025-283A", "EPOCH": "2025-12-17T14:00:03.000384", "MEAN_MOTION": 15.82055144, "ECCENTRICITY": 0.00012046, "INCLINATION": 53.1556, "RA_OF_ASC_NODE": 49.4617, "ARG_OF_PERICENTER": 67.0126, "MEAN_ANOMALY": 116.6774, "EPHEMERIS_TYPE": 0, "CLASSIFICATION_TYPE": "U", "NORAD_CAT_ID": 66878, "ELEMENT_SET_NO": 999, "REV_AT_EPOCH": 320, "BSTAR": -0.0065572495, "MEAN_MOTION_DOT": -0.0121475, "MEAN_MOTION_DDOT": 0}, "tle": {"line1": "1 66878U 25283A   25351.58336806 -.01214750  00000+0 -65572-2 0  9998", "line2": "2 66878  53.1556  49.4617 0001204  67.0126 116.6774 15.82055144  3204"}}, "geometry": {"type": "Point", "coordinates": [-118.17886825718062, -17.836130594434444]}}, {"type": "Feature", "properties": {"norad_id": 66879, "name": "STARLINK-35749", "group": "last-30-days", "lat": -21.69009940553537, "lon": -114.79870308812168, "alt_km": 331.1237292688902, "timestamp": "2025-12-17T21:39:44.492617+00:00", "meta": {"OBJECT_NAME": "STARLINK-35749", "OBJECT_ID": "2025-283B", "EPOCH": "2025-12-17T14:00:03.000384", "MEAN_MOTION": 15.82018398, "ECCENTRICITY": 0.00011693, "INCLINATION": 53.1554, "RA_OF_ASC_NODE": 49.4506, "ARG_OF_PERICENTER": 62.3962, "MEAN_ANOMALY": 126.3707, "EPHEMERIS_TYPE": 0, "CLASSIFICATION_TYPE": "U", "NORAD_CAT_ID": 66879, "ELEMENT_SET_NO": 999, "REV_AT_EPOCH": 320, "BSTAR": -0.006922185, "MEAN_MOTION_DOT": -0.01272404, "MEAN_MOTION_DDOT": 0}, "tle": {"line1": "1 66879U 25283B   25351.58336806 -.01272404  00000+0 -69222-2 0  9995", "line2": "2 66879  53.1554  49.4506 0001169  62.3962 126.3707 15.82018398  3200"}}, "geometry": {"type": "Point", "coordinates": [-114.79870308812168, -21.69009940553537]}}, {"type": "Feature", "properties": {"norad_id": 66880, "name": "STARLINK-35844", "group": "last-30-days", "lat": -19.70410210942801, "lon": -116.5677441723718, "alt_km": 330.7579974158325, "timestamp": "2025-12-17T21:39:44.492628+00:00", "meta": {"OBJECT_NAME": "STARLINK-35844", "OBJECT_ID": "2025-283C", "EPOCH": "2025-12-17T14:00:03.000384", "MEAN_MOTION": 15.82047674, "ECCENTRICITY": 0.00011783, "INCLINATION": 53.1555, "RA_OF_ASC_NODE": 49.4566, "ARG_OF_PERICENTER": 66.6899, "MEAN_ANOMALY": 119.4398, "EPHEMERIS_TYPE": 0, "CLASSIFICATION_TYPE": "U", "NORAD_CAT_ID": 66880, "ELEMENT_SET_NO": 999, "REV_AT_EPOCH": 320, "BSTAR": -0.0067517877, "MEAN_MOTION_DOT": -0.0124623, "MEAN_MOTION_DDOT": 0}, "tle": {"line1": "1 66880U 25283C   25351.58336806 -.01246230  00000+0 -67518-2 0  9991", "line2": "2 66880  53.1555  49.4566 0001178  66.6899 119.4398 15.82047674  3203"}}, "geometry": {"type": "Point", "coordinates": [-116.5677441723718, -19.70410210942801]}}, {"type": "Feature", "properties": {"norad_id": 66881, "name": "STARLINK-35860", "group": "last-30-days", "lat": -23.343276443055405, "lon": -113.27463202182217, "alt_km": 331.2672117889206, "timestamp": "2025-12-17T21:39:44.492638+00:00", "meta": {"OBJECT_NAME": "STARLINK-35860", "OBJECT_ID": "2025-283D", "EPOCH": "2025-12-17T14:00:03.000384", "MEAN_MOTION": 15.8201227, "ECCENTRICITY": 0.00011876, "INCLINATION": 53.1553, "RA_OF_ASC_NODE": 49.4459, "ARG_OF_PERICENTER": 69.6976, "MEAN_ANOMALY": 121.2565, "EPHEMERIS_TYPE": 0, "CLASSIFICATION_TYPE": "U", "NORAD_CAT_ID": 66881, "ELEMENT_SET_NO": 999, "REV_AT_EPOCH": 320, "BSTAR": -0.006993921, "MEAN_MOTION_DOT": -0.01283697, "MEAN_MOTION_DDOT": 0}, "tle": {"line1": "1 66881U 25283D   25351.58336806 -.01283697  00000+0 -69939-2 0  9999", "line2": "2 66881  53.1553  49.4459 0001187  69.6976 121.2565 15.82012270  3203"}}, "geometry": {"type": "Point", "coordinates": [-113.27463202182217, -23.343276443055405]}}, {"type": "Feature", "properties": {"norad_id": 66882, "name": "STARLINK-35912", "group": "last-30-days", "lat": -25.12901611301072, "lon": -111.5679767118219, "alt_km": 331.6627145588136, "timestamp": "2025-12-17T21:39:44.492648+00:00", "meta": {"OBJECT_NAME": "STARLINK-35912", "OBJECT_ID": "2025-283E", "EPOCH": "2025-12-17T14:00:03.000384", "MEAN_MOTION": 15.81988772, "ECCENTRICITY": 0.00013361, "INCLINATION": 53.1555, "RA_OF_ASC_NODE": 49.4414, "ARG_OF_PERICENTER": 63.1153, "MEAN_ANOMALY": 130.246, "EPHEMERIS_TYPE": 0, "CLASSIFICATION_TYPE": "U", "NORAD_CAT_ID": 66882, "ELEMENT_SET_NO": 999, "REV_AT_EPOCH": 320, "BSTAR": -0.0070861201, "MEAN_MOTION_DOT": -0.01297397, "MEAN_MOTION_DDOT": 0}, "tle": {"line1": "1 66882U 25283E   25351.58336806 -.01297397  00000+0 -70861-2 0  9998", "line2": "2 66882  53.1555  49.4414 0001336  63.1153 130.2460 15.81988772  3201"}}, "geometry": {"type": "Point", "coordinates": [-111.5679767118219, -25.12901611301072]}}, {"type": "Feature", "properties": {"norad_id": 66883, "name": "STARLINK-35947", "group": "last-30-days", "lat": -26.977791062065442, "lon": -109.72630348920772, "alt_km": 331.74422414987293, "timestamp": "2025-12-17T21:39:44.492657+00:00", "meta": {"OBJECT_NAME": "STARLINK-35947", "OBJECT_ID": "2025-283F", "EPOCH": "2025-12-17T14:00:03.000384", "MEAN_MOTION": 15.81954304, "ECCENTRICITY": 0.00011378, "INCLINATION": 53.1555, "RA_OF_ASC_NODE": 49.4363, "ARG_OF_PERICENTER": 74.1094, "MEAN_ANOMALY": 121.7837, "EPHEMERIS_TYPE": 0, "CLASSIFICATION_TYPE": "U", "NORAD_CAT_ID": 66883, "ELEMENT_SET_NO": 999, "REV_AT_EPOCH": 325, "BSTAR": -0.0071778615, "MEAN_MOTION_DOT": -0.01310137, "MEAN_MOTION_DDOT": 0}, "tle": {"line1": "1 66883U 25283F   25351.58336806 -.01310137  00000+0 -71779-2 0  9996", "line2": "2 66883  53.1555  49.4363 0001137  74.1094 121.7837 15.81954304  3252"}}, "geometry": {"type": "Point", "coordinates": [-109.72630348920772, -26.977791062065442]}}, {"type": "Feature", "properties": {"norad_id": 66884, "name": "STARLINK-36057", "group": "last-30-days", "lat": -30.53665788016868, "lon": -105.92250207550316, "alt_km": 332.2291215830037, "timestamp": "2025-12-17T21:39:44.492667+00:00", "meta": {"OBJECT_NAME": "STARLINK-36057", "OBJECT_ID": "2025-283G", "EPOCH": "2025-12-17T14:00:03.000384", "MEAN_MOTION": 15.81881593, "ECCENTRICITY": 0.00010578, "INCLINATION": 53.1553, "RA_OF_ASC_NODE": 49.4254, "ARG_OF_PERICENTER": 71.4018, "MEAN_ANOMALY": 129.4696, "EPHEMERIS_TYPE": 0, "CLASSIFICATION_TYPE": "U", "NORAD_CAT_ID": 66884, "ELEMENT_SET_NO": 999, "REV_AT_EPOCH": 320, "BSTAR": -0.0072717036, "MEAN_MOTION_DOT": -0.01321111, "MEAN_MOTION_DDOT": 0}, "tle": {"line1": "1 66884U 25283G   25351.58336806 -.01321111  00000+0 -72717-2 0  9994", "line2": "2 66884  53.1553  49.4254 0001057  71.4018 129.4696 15.81881593  3209"}}, "geometry": {"type": "Point", "coordinates": [-105.92250207550316, -30.53665788016868]}}, {"type": "Feature", "properties": {"norad_id": 66885, "name": "STARLINK-35954", "group": "last-30-days", "lat": -28.775809372086385, "lon": -107.85153871938947, "alt_km": 331.9857925428041, "timestamp": "2025-12-17T21:39:44.492677+00:00", "meta": {"OBJECT_NAME": "STARLINK-35954", "OBJECT_ID": "2025-283H", "EPOCH": "2025-12-17T14:00:03.000384", "MEAN_MOTION": 15.81916082, "ECCENTRICITY": 0.00010931, "INCLINATION": 53.1552, "RA_OF_ASC_NODE": 49.4305, "ARG_OF_PERICENTER": 73.752, "MEAN_ANOMALY": 124.6387, "EPHEMERIS_TYPE": 0, "CLASSIFICATION_TYPE": "U", "NORAD_CAT_ID": 66885, "ELEMENT_SET_NO": 999, "REV_AT_EPOCH": 320, "BSTAR": -0.0072155525, "MEAN_MOTION_DOT": -0.01314061, "MEAN_MOTION_DDOT": 0}, "tle": {"line1": "1 66885U 25283H   25351.58336806 -.01314061  00000+0 -72156-2 0  9998", "line2": "2 66885  53.1552  49.4305 0001093  73.7520 124.6387 15.81916082  3205"}}, "geometry": {"type": "Point", "coordinates": [-107.85153871938947, -28.775809372086385]}}]}